[
    {
        "Altitude(m)": 611967.1446242777,
        "Argument of Periapsis(deg)": 0.0,
        "Eccentricity": 0.0,
        "Inclination(deg)": 60.0,
        "Latitude(deg)": 59.14005758032881,
        "Longitude(deg)": -63.9079901141106,
        "Mean Anomaly(deg)": -261.8182,
        "RAAN(deg)": 290.0,
        "Satellite Name": "Test1 1282",
        "Satellite Number": 1282,
        "Semi-Major Axis(m)": 6980739.136638005,
        "Time(s)": 0
    },
    {
        "Altitude(m)": 611934.3445813768,
        "Argument of Periapsis(deg)": 0.00010418945913296404,
        "Eccentricity": 0.0,
        "Inclination(deg)": 60.0,
        "Latitude(deg)": 58.98642034358979,
        "Longitude(deg)": -62.78474746360973,
        "Mean Anomaly(deg)": -261.1980938545382,
        "RAAN(deg)": 289.99957995086027,
        "Satellite Name": "Test1 1282",
        "Satellite Number": 1282,
        "Semi-Major Axis(m)": 6980739.136638005,
        "Time(s)": 10
    }
]